ONEWEB-0176             
1 48210U 21031A   24278.89517889  .00000197  00000+0  49740-3 0  9993
2 48210  87.8987  53.0441 0001646  96.9693 263.1624 13.14503536166828
ONEWEB-0184             
1 48211U 21031B   24278.86821876 -.00000217  00000+0 -61973-3 0  9992
2 48211  87.8984  53.0292 0002685 100.8855 259.2577 13.14504556166791
ONEWEB-0179             
1 48212U 21031C   24278.91419705  .00000272  00000+0  69876-3 0  9992
2 48212  87.8990  53.0273 0001616  93.1746 266.9568 13.14505044166848
ONEWEB-0180             
1 48213U 21031D   24278.87137115 -.00000430  00000+0 -11943-2 0  9999
2 48213  87.8981  53.0304 0001676  90.7419 269.3903 13.14502918166724
ONEWEB-0218             
1 48214U 21031E   24278.89357411  .00000236  00000+0  60113-3 0  9991
2 48214  87.8985  53.0278 0002692  92.3550 267.7888 13.14505200166880
ONEWEB-0209             
1 48215U 21031F   24278.88247188 -.00000034  00000+0 -12576-3 0  9998
2 48215  87.8985  53.0665 0001622  90.3842 269.7473 13.14505386166882
ONEWEB-0198             
1 48216U 21031G   24278.94273968 -.00000173  00000+0 -50061-3 0  9996
2 48216  87.8984  53.0583 0002009  91.4965 268.6394 13.14503700166988
ONEWEB-0189             
1 48217U 21031H   24278.87931631 -.00000111  00000+0 -33512-3 0  9991
2 48217  87.8983  53.0460 0002034  88.3239 271.8123 13.14504606166734
